[Satellite]
VERSION=1.1
NAME=CUBERRT
NICKNAME=CUBERRT
TLE1=1 43546U 98067NU  20158.01248735  .00011877  00000-0  88403-4 0  9999
TLE2=2 43546  51.6342 340.0757 0002829  52.4413 307.6842 15.73302678108440
STATUS=0
